[{"OBJECT_NAME":"JILIN-1 GAOFEN 2F","OBJECT_ID":"2021-097A","EPOCH":"2026-03-09T22:15:16.366464","MEAN_MOTION":15.06938169,"ECCENTRICITY":0.00186372,"INCLINATION":97.6538,"RA_OF_ASC_NODE":195.5232,"ARG_OF_PERICENTER":201.1609,"MEAN_ANOMALY":158.885,"EPHEMERIS_TYPE":0,"CLASSIFICATION_TYPE":"U","NORAD_CAT_ID":49338,"ELEMENT_SET_NO":999,"REV_AT_EPOCH":24136,"BSTAR":0.0003789548,"MEAN_MOTION_DOT":5.624e-5,"MEAN_MOTION_DDOT":0},{"OBJECT_NAME":"STARLINK-6218","OBJECT_ID":"2023-099AS","EPOCH":"2026-03-09T11:07:30.255168","MEAN_MOTION":15.02535809,"ECCENTRICITY":0.00015411,"INCLINATION":43.0031,"RA_OF_ASC_NODE":237.0719,"ARG_OF_PERICENTER":271.1338,"MEAN_ANOMALY":88.9328,"EPHEMERIS_TYPE":0,"CLASSIFICATION_TYPE":"U","NORAD_CAT_ID":57368,"ELEMENT_SET_NO":999,"REV_AT_EPOCH":14623,"BSTAR":2.4848079e-5,"MEAN_MOTION_DOT":1.32e-6,"MEAN_MOTION_DDOT":0}]
